{
  "type": "FeatureCollection",
  "features": [
    {
      "type": "Feature",
      "properties": {
        "norad_id": 2807,
        "name": "OPS 7218 (TRANSIT 16)",
        "group": "nnss",
        "lat": 72.33530281353003,
        "lon": 172.673860081794,
        "alt_km": 1047.1270529514977,
        "timestamp": "2025-12-22T05:49:03.767888+00:00",
        "meta_object_name": "OPS 7218 (TRANSIT 16)",
        "meta_object_id": "1967-048A",
        "meta_epoch": "2025-12-21T17:41:39.509376",
        "meta_mean_motion": 13.50724099,
        "meta_eccentricity": 0.0022162,
        "meta_inclination": 89.6731,
        "meta_ra_of_asc_node": 353.7177,
        "meta_arg_of_pericenter": 90.0973,
        "meta_mean_anomaly": 82.6056,
        "meta_ephemeris_type": 0,
        "meta_classification_type": "U",
        "meta_norad_cat_id": 2807,
        "meta_element_set_no": 999,
        "meta_rev_at_epoch": 88397,
        "meta_bstar": 0.0001479,
        "meta_mean_motion_dot": 1.06e-06,
        "meta_mean_motion_ddot": 0,
        "tle_line1": "1 02807U 67048A   25355.73726284  .00000106  00000+0  14790-3 0  9991",
        "tle_line2": "2 02807  89.6731 353.7177 0022162  90.0973  82.6056 13.50724099883979"
      },
      "geometry": {
        "type": "Point",
        "coordinates": [
          172.673860081794,
          72.33530281353003
        ]
      }
    },
    {
      "type": "Feature",
      "properties": {
        "norad_id": 2965,
        "name": "OPS 4947 (TRANSIT 17)",
        "group": "nnss",
        "lat": -85.7711117866386,
        "lon": -146.0679408162525,
        "alt_km": 1049.2808429472207,
        "timestamp": "2025-12-22T05:49:03.767911+00:00",
        "meta_object_name": "OPS 4947 (TRANSIT 17)",
        "meta_object_id": "1967-092A",
        "meta_epoch": "2025-12-21T14:52:15.199104",
        "meta_mean_motion": 13.53455839,
        "meta_eccentricity": 0.0046816,
        "meta_inclination": 89.2487,
        "meta_ra_of_asc_node": 23.7581,
        "meta_arg_of_pericenter": 208.0887,
        "meta_mean_anomaly": 264.608,
        "meta_ephemeris_type": 0,
        "meta_classification_type": "U",
        "meta_norad_cat_id": 2965,
        "meta_element_set_no": 999,
        "meta_rev_at_epoch": 87217,
        "meta_bstar": 0.00019342,
        "meta_mean_motion_dot": 1.42e-06,
        "meta_mean_motion_ddot": 0,
        "tle_line1": "1 02965U 67092A   25355.61962036  .00000142  00000+0  19342-3 0  9997",
        "tle_line2": "2 02965  89.2487  23.7581 0046816 208.0887 264.6080 13.53455839872173"
      },
      "geometry": {
        "type": "Point",
        "coordinates": [
          -146.0679408162525,
          -85.7711117866386
        ]
      }
    },
    {
      "type": "Feature",
      "properties": {
        "norad_id": 3133,
        "name": "OPS 7034 (TRANSIT 18)",
        "group": "nnss",
        "lat": -10.483695460863993,
        "lon": -86.3287933900367,
        "alt_km": 1119.802676631588,
        "timestamp": "2025-12-22T05:49:03.767925+00:00",
        "meta_object_name": "OPS 7034 (TRANSIT 18)",
        "meta_object_id": "1968-012A",
        "meta_epoch": "2025-12-21T17:42:37.304928",
        "meta_mean_motion": 13.51567731,
        "meta_eccentricity": 0.0074707,
        "meta_inclination": 90.0284,
        "meta_ra_of_asc_node": 273.6645,
        "meta_arg_of_pericenter": 143.2292,
        "meta_mean_anomaly": 273.6806,
        "meta_ephemeris_type": 0,
        "meta_classification_type": "U",
        "meta_norad_cat_id": 3133,
        "meta_element_set_no": 999,
        "meta_rev_at_epoch": 57040,
        "meta_bstar": 0.00019021,
        "meta_mean_motion_dot": 1.36e-06,
        "meta_mean_motion_ddot": 0,
        "tle_line1": "1 03133U 68012A   25355.73793177  .00000136  00000+0  19021-3 0  9996",
        "tle_line2": "2 03133  90.0284 273.6645 0074707 143.2292 273.6806 13.51567731570403"
      },
      "geometry": {
        "type": "Point",
        "coordinates": [
          -86.3287933900367,
          -10.483695460863993
        ]
      }
    },
    {
      "type": "Feature",
      "properties": {
        "norad_id": 4507,
        "name": "NNSS 19 (TRANSIT 19)",
        "group": "nnss",
        "lat": -45.7117962799336,
        "lon": -125.4545138706477,
        "alt_km": 989.4962199054034,
        "timestamp": "2025-12-22T05:49:03.767937+00:00",
        "meta_object_name": "NNSS 19 (TRANSIT 19)",
        "meta_object_id": "1970-067A",
        "meta_epoch": "2025-12-21T17:36:04.817376",
        "meta_mean_motion": 13.51316852,
        "meta_eccentricity": 0.0170227,
        "meta_inclination": 90.005,
        "meta_ra_of_asc_node": 234.5401,
        "meta_arg_of_pericenter": 267.0576,
        "meta_mean_anomaly": 91.1084,
        "meta_ephemeris_type": 0,
        "meta_classification_type": "U",
        "meta_norad_cat_id": 4507,
        "meta_element_set_no": 999,
        "meta_rev_at_epoch": 72343,
        "meta_bstar": 0.00014461,
        "meta_mean_motion_dot": 1.1e-06,
        "meta_mean_motion_ddot": 0,
        "tle_line1": "1 04507U 70067A   25355.73338909  .00000110  00000+0  14461-3 0  9998",
        "tle_line2": "2 04507  90.0050 234.5401 0170227 267.0576  91.1084 13.51316852723430"
      },
      "geometry": {
        "type": "Point",
        "coordinates": [
          -125.4545138706477,
          -45.7117962799336
        ]
      }
    },
    {
      "type": "Feature",
      "properties": {
        "norad_id": 6909,
        "name": "NNSS 20 (TRANSIT 20)",
        "group": "nnss",
        "lat": -8.706780640789434,
        "lon": -105.11019506400623,
        "alt_km": 937.3270466617578,
        "timestamp": "2025-12-22T05:49:03.767949+00:00",
        "meta_object_name": "NNSS 20 (TRANSIT 20)",
        "meta_object_id": "1973-081A",
        "meta_epoch": "2025-12-21T19:21:11.189664",
        "meta_mean_motion": 13.71438822,
        "meta_eccentricity": 0.0156347,
        "meta_inclination": 89.8562,
        "meta_ra_of_asc_node": 254.9184,
        "meta_arg_of_pericenter": 51.459,
        "meta_mean_anomaly": 310.0467,
        "meta_ephemeris_type": 0,
        "meta_classification_type": "U",
        "meta_norad_cat_id": 6909,
        "meta_element_set_no": 999,
        "meta_rev_at_epoch": 80485,
        "meta_bstar": 0.00025747,
        "meta_mean_motion_dot": 2.64e-06,
        "meta_mean_motion_ddot": 0,
        "tle_line1": "1 06909U 73081A   25355.80637951  .00000264  00000+0  25747-3 0  9991",
        "tle_line2": "2 06909  89.8562 254.9184 0156347  51.4590 310.0467 13.71438822804852"
      },
      "geometry": {
        "type": "Point",
        "coordinates": [
          -105.11019506400623,
          -8.706780640789434
        ]
      }
    },
    {
      "type": "Feature",
      "properties": {
        "norad_id": 10457,
        "name": "TRANSAT",
        "group": "nnss",
        "lat": -57.25801255540508,
        "lon": -101.1914255708882,
        "alt_km": 1078.1379694240923,
        "timestamp": "2025-12-22T05:49:03.767960+00:00",
        "meta_object_name": "TRANSAT",
        "meta_object_id": "1977-106A",
        "meta_epoch": "2025-12-21T18:30:47.925792",
        "meta_mean_motion": 13.48944897,
        "meta_eccentricity": 0.0026245,
        "meta_inclination": 89.6478,
        "meta_ra_of_asc_node": 78.2772,
        "meta_arg_of_pericenter": 163.7104,
        "meta_mean_anomaly": 307.1984,
        "meta_ephemeris_type": 0,
        "meta_classification_type": "U",
        "meta_norad_cat_id": 10457,
        "meta_element_set_no": 999,
        "meta_rev_at_epoch": 36865,
        "meta_bstar": 0.0001271,
        "meta_mean_motion_dot": 9e-07,
        "meta_mean_motion_ddot": 0,
        "tle_line1": "1 10457U 77106A   25355.77138803  .00000090  00000+0  12710-3 0  9997",
        "tle_line2": "2 10457  89.6478  78.2772 0026245 163.7104 307.1984 13.48944897368652"
      },
      "geometry": {
        "type": "Point",
        "coordinates": [
          -101.1914255708882,
          -57.25801255540508
        ]
      }
    },
    {
      "type": "Feature",
      "properties": {
        "norad_id": 12458,
        "name": "NOVA 1",
        "group": "nnss",
        "lat": -18.659690558275493,
        "lon": 91.20112281767297,
        "alt_km": 1179.0907373811824,
        "timestamp": "2025-12-22T05:49:03.767970+00:00",
        "meta_object_name": "NOVA 1",
        "meta_object_id": "1981-044A",
        "meta_epoch": "2025-12-21T17:47:03.721056",
        "meta_mean_motion": 13.23279405,
        "meta_eccentricity": 0.0015829,
        "meta_inclination": 89.8527,
        "meta_ra_of_asc_node": 91.258,
        "meta_arg_of_pericenter": 81.8787,
        "meta_mean_anomaly": 32.6129,
        "meta_ephemeris_type": 0,
        "meta_classification_type": "U",
        "meta_norad_cat_id": 12458,
        "meta_element_set_no": 999,
        "meta_rev_at_epoch": 15305,
        "meta_bstar": 0.00011924,
        "meta_mean_motion_dot": 6e-07,
        "meta_mean_motion_ddot": 0,
        "tle_line1": "1 12458U 81044A   25355.74101529  .00000060  00000+0  11924-3 0  9991",
        "tle_line2": "2 12458  89.8527  91.2580 0015829  81.8787  32.6129 13.23279405153053"
      },
      "geometry": {
        "type": "Point",
        "coordinates": [
          91.20112281767297,
          -18.659690558275493
        ]
      }
    }
  ]
}